[{"OBJECT_NAME":"IRIDIUM 164","OBJECT_ID":"2018-061J","EPOCH":"2026-03-09T19:37:38.506656","MEAN_MOTION":14.34217471,"ECCENTRICITY":0.00023952,"INCLINATION":86.3912,"RA_OF_ASC_NODE":98.3356,"ARG_OF_PERICENTER":97.8473,"MEAN_ANOMALY":262.2995,"EPHEMERIS_TYPE":0,"CLASSIFICATION_TYPE":"U","NORAD_CAT_ID":43577,"ELEMENT_SET_NO":999,"REV_AT_EPOCH":39917,"BSTAR":-1.475216e-6,"MEAN_MOTION_DOT":1.6e-7,"MEAN_MOTION_DDOT":0},{"OBJECT_NAME":"CZ-6A DEB","OBJECT_ID":"2024-140PG","EPOCH":"2026-03-09T13:12:22.397472","MEAN_MOTION":14.4354865,"ECCENTRICITY":0.00439558,"INCLINATION":88.9702,"RA_OF_ASC_NODE":281.9735,"ARG_OF_PERICENTER":325.9246,"MEAN_ANOMALY":33.9136,"EPHEMERIS_TYPE":0,"CLASSIFICATION_TYPE":"U","NORAD_CAT_ID":61114,"ELEMENT_SET_NO":999,"REV_AT_EPOCH":8151,"BSTAR":0.0013627825,"MEAN_MOTION_DOT":4.682e-5,"MEAN_MOTION_DDOT":0}]
